{
  "type": "FeatureCollection",
  "features": [
    {
      "type": "Feature",
      "properties": {
        "name": "2026-07-30 AM 10:26:02",
        "time": "2026-07-30T10:25:00+09:00",
        "coordTimes": [
          "2026-07-30T10:25:00+09:00",
          "2026-07-30T11:00:00+09:00",
          "2026-07-30T12:10:00+09:00",
          "2026-07-30T12:15:00+09:00",
          "2026-07-30T13:25:00+09:00",
          "2026-07-30T14:20:00+09:00",
          "2026-07-30T15:10:00+09:00",
          "2026-07-30T15:55:00+09:00",
          "2026-07-30T17:00:00+09:00",
          "2026-07-30T17:30:00+09:00",
          "2026-07-30T18:35:00+09:00",
          "2026-07-31T00:45:00+09:00",
          "2026-07-31T00:50:00+09:00",
          "2026-07-31T00:55:00+09:00",
          "2026-07-31T01:00:00+09:00",
          "2026-07-31T01:05:00+09:00",
          "2026-07-31T01:10:00+09:00",
          "2026-07-31T01:15:00+09:00",
          "2026-07-31T01:20:00+09:00",
          "2026-07-31T01:30:00+09:00",
          "2026-07-31T01:35:00+09:00",
          "2026-07-31T01:40:00+09:00",
          "2026-07-31T01:45:00+09:00",
          "2026-07-31T03:20:00+09:00",
          "2026-07-31T04:10:00+09:00",
          "2026-07-31T19:05:00+09:00",
          "2026-07-31T19:20:00+09:00",
          "2026-07-31T20:00:00+09:00",
          "2026-07-31T20:05:00+09:00",
          "2026-07-31T20:10:00+09:00",
          "2026-07-31T20:15:00+09:00",
          "2026-07-31T20:20:00+09:00",
          "2026-07-31T20:25:00+09:00",
          "2026-08-01T00:20:00+09:00",
          "2026-08-01T00:30:00+09:00",
          "2026-08-01T09:45:00+09:00",
          "2026-08-01T09:50:00+09:00",
          "2026-08-01T09:55:00+09:00",
          "2026-08-01T10:00:00+09:00",
          "2026-08-01T10:05:00+09:00",
          "2026-08-01T10:10:00+09:00",
          "2026-08-01T10:15:00+09:00",
          "2026-08-01T10:25:00+09:00",
          "2026-08-01T12:05:00+09:00",
          "2026-08-01T12:10:00+09:00",
          "2026-08-01T12:45:00+09:00",
          "2026-08-01T12:50:00+09:00",
          "2026-08-01T13:00:00+09:00",
          "2026-08-01T13:05:00+09:00",
          "2026-08-01T13:10:00+09:00",
          "2026-08-01T13:15:00+09:00",
          "2026-08-01T13:20:00+09:00",
          "2026-08-01T13:25:00+09:00",
          "2026-08-01T13:30:00+09:00",
          "2026-08-01T13:35:00+09:00",
          "2026-08-01T13:40:00+09:00",
          "2026-08-01T13:45:00+09:00",
          "2026-08-01T13:50:00+09:00",
          "2026-08-01T14:00:00+09:00",
          "2026-08-01T14:10:00+09:00",
          "2026-08-01T15:30:00+09:00",
          "2026-08-01T15:35:00+09:00",
          "2026-08-01T15:40:00+09:00",
          "2026-08-01T15:45:00+09:00",
          "2026-08-01T15:50:00+09:00",
          "2026-08-01T16:00:00+09:00",
          "2026-08-01T16:05:00+09:00",
          "2026-08-01T16:10:00+09:00",
          "2026-08-01T16:35:00+09:00",
          "2026-08-01T16:40:00+09:00",
          "2026-08-01T17:00:00+09:00",
          "2026-08-01T19:35:00+09:00",
          "2026-08-01T19:40:00+09:00",
          "2026-08-01T19:45:00+09:00",
          "2026-08-01T19:50:00+09:00",
          "2026-08-02T10:10:00+09:00",
          "2026-08-02T10:15:00+09:00",
          "2026-08-02T10:20:00+09:00",
          "2026-08-02T10:25:00+09:00",
          "2026-08-02T10:30:00+09:00",
          "2026-08-02T10:35:00+09:00",
          "2026-08-02T10:40:00+09:00",
          "2026-08-02T10:45:00+09:00",
          "2026-08-02T10:55:00+09:00",
          "2026-08-02T11:00:00+09:00",
          "2026-08-02T11:05:00+09:00",
          "2026-08-02T11:10:00+09:00",
          "2026-08-02T11:15:00+09:00",
          "2026-08-02T11:20:00+09:00",
          "2026-08-02T11:25:00+09:00",
          "2026-08-02T12:00:00+09:00",
          "2026-08-02T12:05:00+09:00",
          "2026-08-02T12:10:00+09:00",
          "2026-08-02T12:15:00+09:00",
          "2026-08-02T12:20:00+09:00",
          "2026-08-02T12:25:00+09:00",
          "2026-08-02T12:30:00+09:00",
          "2026-08-02T12:35:00+09:00",
          "2026-08-02T12:45:00+09:00",
          "2026-08-02T15:40:00+09:00",
          "2026-08-02T16:50:00+09:00",
          "2026-08-02T16:55:00+09:00",
          "2026-08-02T17:00:00+09:00",
          "2026-08-02T17:35:00+09:00",
          "2026-08-02T17:40:00+09:00",
          "2026-08-02T17:55:00+09:00",
          "2026-08-02T18:00:00+09:00",
          "2026-08-02T18:05:00+09:00",
          "2026-08-02T18:20:00+09:00",
          "2026-08-02T18:25:00+09:00",
          "2026-08-02T18:35:00+09:00",
          "2026-08-02T20:00:00+09:00",
          "2026-08-02T20:05:00+09:00",
          "2026-08-02T20:10:00+09:00",
          "2026-08-02T20:15:00+09:00",
          "2026-08-02T20:20:00+09:00",
          "2026-08-02T20:25:00+09:00",
          "2026-08-02T20:30:00+09:00",
          "2026-08-02T20:35:00+09:00",
          "2026-08-02T20:40:00+09:00",
          "2026-08-02T20:45:00+09:00",
          "2026-08-02T20:50:00+09:00",
          "2026-08-02T20:55:00+09:00"
        ],
        "timezone": "Asia/Seoul",
        "interval_minutes": 5,
        "original_point_count": 7815,
        "resampled_point_count": 123
      },
      "geometry": {
        "type": "LineString",
        "coordinates": [
          [
            127.0783336263856,
            37.62268301914548,
            24.13052478293187
          ],
          [
            127.0782267693843,
            37.62267736885602,
            27.73293685913086
          ],
          [
            127.0782867637681,
            37.62276718758284,
            29.83260467180022
          ],
          [
            127.0783699513241,
            37.62269195559714,
            42.10252489221387
          ],
          [
            127.0783668977421,
            37.6226916197573,
            40.50907894777288
          ],
          [
            127.0783642783043,
            37.62269132937339,
            39.14243161197253
          ],
          [
            127.0783619837095,
            37.62269107406154,
            37.94536797084557
          ],
          [
            127.0783600326206,
            37.62269085697042,
            36.92750734578485
          ],
          [
            127.0783570302656,
            37.62269052226974,
            35.36128298481577
          ],
          [
            127.0783557457536,
            37.62269037891869,
            34.69121453865906
          ],
          [
            127.0783392790008,
            37.62270699138353,
            33.68972868907992
          ],
          [
            127.0779575159327,
            37.62284844912097,
            26.69492651971738
          ],
          [
            127.0772948076806,
            37.62551574725303,
            33.22080896870002
          ],
          [
            127.0763719517295,
            37.62692420690459,
            30.11339397562166
          ],
          [
            127.0731763869087,
            37.6258876500464,
            21.22540653473217
          ],
          [
            127.0726679690939,
            37.62652547262586,
            23.47289410606027
          ],
          [
            127.0728107718269,
            37.62668153112014,
            41.44523175352616
          ],
          [
            127.0727009005427,
            37.62669025019238,
            36.33834068252701
          ],
          [
            127.0726393822747,
            37.62663964017187,
            32.33766643248586
          ],
          [
            127.0752537259779,
            37.62654714499035,
            27.81524539834724
          ],
          [
            127.0774902503586,
            37.62492248758056,
            31.85462964842727
          ],
          [
            127.0782543660836,
            37.62279300352414,
            27.10520314570087
          ],
          [
            127.0784944342636,
            37.62270575835689,
            27.65938507765532
          ],
          [
            127.0783555302486,
            37.62270826009132,
            28.26573733163958
          ],
          [
            127.078273189751,
            37.62273840915484,
            32.16496385625668
          ],
          [
            127.0750673682971,
            37.61761833317802,
            22.38083821692956
          ],
          [
            127.0195799882324,
            37.60980228646182,
            2.516012408381205
          ],
          [
            126.834754692372,
            37.57339957449404,
            11.07865841486049
          ],
          [
            126.8346008216901,
            37.57305331765744,
            9.515850701629624
          ],
          [
            126.7379142549221,
            37.57170506668331,
            13.15821883801949
          ],
          [
            126.6895634156219,
            37.56974271123538,
            29.90758549376035
          ],
          [
            126.6371466960099,
            37.5604942743944,
            23.06305502674718
          ],
          [
            126.6248868413292,
            37.55550011877205,
            8.29687229238929
          ],
          [
            126.6234578143298,
            37.52694561735699,
            12.4362340296282
          ],
          [
            126.6242385073681,
            37.52693311406647,
            8.574912328273058
          ],
          [
            126.6284512327003,
            37.51989525421801,
            4.331774250321142
          ],
          [
            126.662510255969,
            37.5255040335372,
            6.923057801767415
          ],
          [
            126.6843937071122,
            37.52405029857664,
            38.85907445079327
          ],
          [
            126.7055537233712,
            37.52667877886517,
            32.42716614977216
          ],
          [
            126.7055084074595,
            37.52665425646239,
            32.44945316649302
          ],
          [
            126.7056873764913,
            37.5270993185316,
            34.17151921109667
          ],
          [
            126.7056881297479,
            37.52709475256859,
            34.11724918546631
          ],
          [
            126.7056453947569,
            37.52707369085222,
            34.01184028018955
          ],
          [
            126.7053929210976,
            37.5271450218237,
            34.74004033859819
          ],
          [
            126.7054013382072,
            37.52713332718748,
            34.59551262199481
          ],
          [
            126.7053074600601,
            37.52734920077526,
            35.76675960302746
          ],
          [
            126.7034748019898,
            37.52783610093577,
            38.22709495643575
          ],
          [
            126.6948598837907,
            37.52497370832819,
            44.844984250035
          ],
          [
            126.682503262933,
            37.51918859146942,
            48.78095092531294
          ],
          [
            126.6770119664393,
            37.50188283214759,
            14.97830498118198
          ],
          [
            126.676815872604,
            37.50097743409504,
            22.04284788368178
          ],
          [
            126.6789354353512,
            37.51287541423274,
            30.06541521130735
          ],
          [
            126.6947685734354,
            37.52271134670878,
            33.46560537815094
          ],
          [
            126.7060610340932,
            37.52697595181565,
            31.28831519895567
          ],
          [
            126.7059912412065,
            37.52699679900343,
            31.68141765854662
          ],
          [
            126.7059117775807,
            37.52687102334954,
            29.80118441363496
          ],
          [
            126.7058716104631,
            37.52687563474009,
            30.4645418820129
          ],
          [
            126.7058597690845,
            37.52689135187354,
            30.67915103949939
          ],
          [
            126.7058419068193,
            37.52690213781904,
            31.5542267583039
          ],
          [
            126.7058132150185,
            37.52692187524611,
            32.31796288454795
          ],
          [
            126.7056980729883,
            37.52707110912218,
            36.03118149600335
          ],
          [
            126.7058039316622,
            37.5270328231468,
            41.62012619326042
          ],
          [
            126.7058453469022,
            37.5270565561123,
            36.1216675776877
          ],
          [
            126.7056529117667,
            37.52716043494084,
            42.63929785996622
          ],
          [
            126.7055325103469,
            37.52691771685299,
            33.98009386058639
          ],
          [
            126.7057433413263,
            37.52701004922204,
            33.84956616269999
          ],
          [
            126.7057472500537,
            37.52699714361056,
            33.91998818609864
          ],
          [
            126.7057394545087,
            37.52700402475699,
            33.9591645149136
          ],
          [
            126.7057694880375,
            37.52685311051832,
            31.62478116096998
          ],
          [
            126.7057073283848,
            37.52686052288264,
            31.85740908890481
          ],
          [
            126.705479835174,
            37.52722829642203,
            40.51741488879681
          ],
          [
            126.6855538771985,
            37.5243528550497,
            43.18886341908097
          ],
          [
            126.6630439601096,
            37.52579953234574,
            8.187084962616531
          ],
          [
            126.6282485078626,
            37.52057947761384,
            4.48517909439513
          ],
          [
            126.6243558046901,
            37.52675320978813,
            9.166034787216935
          ],
          [
            126.6245643888848,
            37.52639313231937,
            57.5891380533576
          ],
          [
            126.6240747125681,
            37.52696918481781,
            8.952122425155837
          ],
          [
            126.6283698521664,
            37.52003889960519,
            5.284293473752415
          ],
          [
            126.6622545492784,
            37.52551825912686,
            6.213179414400656
          ],
          [
            126.6766090999809,
            37.52449424411768,
            20.09535998267853
          ],
          [
            126.7035791172412,
            37.5252419607888,
            33.67768113288291
          ],
          [
            126.7051802455502,
            37.5270386307027,
            33.76137708550033
          ],
          [
            126.7052807529864,
            37.52704669593546,
            34.24322486462314
          ],
          [
            126.7051674613316,
            37.52712477026544,
            34.516343063581
          ],
          [
            126.7074169040883,
            37.52734293474605,
            34.13612410417563
          ],
          [
            126.707487505679,
            37.52747602265381,
            35.00109080634756
          ],
          [
            126.7072736748727,
            37.52755393036937,
            35.27699020027558
          ],
          [
            126.7073141366974,
            37.52761013643879,
            35.29250083521046
          ],
          [
            126.7053980555261,
            37.52695846793744,
            32.14728878729364
          ],
          [
            126.7056625859671,
            37.52712509867959,
            34.58672798568927
          ],
          [
            126.705509540643,
            37.52718819050529,
            34.97350659562991
          ],
          [
            126.705782264589,
            37.52733048055104,
            44.64089586492628
          ],
          [
            126.7057880782823,
            37.52739494110929,
            39.09286796159144
          ],
          [
            126.7058441397839,
            37.52703670776186,
            34.34473168859914
          ],
          [
            126.7057741787388,
            37.52692751603777,
            49.05797655232887
          ],
          [
            126.7057141775999,
            37.5270200768845,
            42.91365630867469
          ],
          [
            126.7055804139643,
            37.5271357350517,
            34.36718426833436
          ],
          [
            126.7058939568504,
            37.5266462440526,
            -3.437351203523576
          ],
          [
            126.7058884944067,
            37.52667939424516,
            -1.090386252622319
          ],
          [
            126.7053034732406,
            37.52713222380239,
            34.51902870323151
          ],
          [
            126.7056103882843,
            37.52720085257534,
            50.70132067240775
          ],
          [
            126.7057039748849,
            37.52689840344485,
            41.47153425670302
          ],
          [
            126.7057333818382,
            37.52686491504141,
            39.56480397388988
          ],
          [
            126.7057950731223,
            37.52645349426401,
            29.34277121127213
          ],
          [
            126.7058253494505,
            37.5266826656858,
            34.00474611799109
          ],
          [
            126.7059190701617,
            37.52692265040926,
            33.3867814743186
          ],
          [
            126.7052876701494,
            37.52692941521018,
            32.72739372317896
          ],
          [
            126.7052942564512,
            37.52692699764692,
            35.21459895874101
          ],
          [
            126.7051531634921,
            37.52690126175586,
            37.72996044227705
          ],
          [
            126.7054860317247,
            37.52658130807407,
            37.53263175982619
          ],
          [
            126.7054968227567,
            37.52659996502147,
            36.95733033686118
          ],
          [
            126.7057095649075,
            37.52675272943206,
            34.82981285668424
          ],
          [
            126.7056055794604,
            37.52635757445885,
            55.6424223324284
          ],
          [
            126.7057223774064,
            37.52653150368874,
            45.23774744116679
          ],
          [
            126.7058019274431,
            37.52660545440504,
            41.36300683375201
          ],
          [
            126.7084581388164,
            37.52694039100734,
            32.57478209398056
          ],
          [
            126.7084101392989,
            37.52694252369805,
            32.48149442770585
          ],
          [
            126.7078060177526,
            37.52676623766561,
            31.04519359349289
          ],
          [
            126.7052819691201,
            37.52700532536936,
            33.91942128336803
          ],
          [
            126.7051881872796,
            37.52739925211166,
            36.43214673769602
          ],
          [
            126.7046632429514,
            37.52135923945672,
            23.36559162174741
          ],
          [
            126.7035834120931,
            37.50906594703855,
            23.30456996700735
          ],
          [
            126.7039864597578,
            37.50851387219889,
            23.10848895826107
          ]
        ]
      }
    },
    {
      "type": "Feature",
      "properties": {
        "name": "2026-08-04 PM 05:36:35",
        "time": "2026-08-04T17:35:00+09:00",
        "coordTimes": [
          "2026-08-04T17:35:00+09:00",
          "2026-08-04T17:40:00+09:00",
          "2026-08-04T17:45:00+09:00",
          "2026-08-05T16:40:00+09:00",
          "2026-08-05T16:45:00+09:00",
          "2026-08-05T17:30:00+09:00",
          "2026-08-06T00:05:00+09:00",
          "2026-08-06T00:10:00+09:00",
          "2026-08-06T00:15:00+09:00",
          "2026-08-06T00:20:00+09:00",
          "2026-08-06T01:00:00+09:00",
          "2026-08-06T07:25:00+09:00",
          "2026-08-06T07:35:00+09:00",
          "2026-08-06T08:00:00+09:00",
          "2026-08-06T08:05:00+09:00",
          "2026-08-06T08:10:00+09:00",
          "2026-08-06T08:15:00+09:00",
          "2026-08-06T08:20:00+09:00",
          "2026-08-06T08:25:00+09:00",
          "2026-08-06T08:30:00+09:00",
          "2026-08-06T08:35:00+09:00",
          "2026-08-06T08:40:00+09:00",
          "2026-08-06T10:55:00+09:00",
          "2026-08-06T11:00:00+09:00",
          "2026-08-06T11:15:00+09:00",
          "2026-08-06T11:45:00+09:00",
          "2026-08-06T11:55:00+09:00",
          "2026-08-06T12:10:00+09:00",
          "2026-08-06T12:15:00+09:00",
          "2026-08-06T12:20:00+09:00",
          "2026-08-06T12:25:00+09:00",
          "2026-08-06T12:30:00+09:00",
          "2026-08-08T12:05:00+09:00",
          "2026-08-08T12:10:00+09:00",
          "2026-08-08T19:00:00+09:00",
          "2026-08-09T08:25:00+09:00",
          "2026-08-09T08:30:00+09:00",
          "2026-08-09T08:35:00+09:00",
          "2026-08-09T08:40:00+09:00",
          "2026-08-09T08:45:00+09:00",
          "2026-08-09T08:50:00+09:00",
          "2026-08-09T19:35:00+09:00",
          "2026-08-09T19:40:00+09:00",
          "2026-08-09T19:45:00+09:00",
          "2026-08-09T19:50:00+09:00",
          "2026-08-09T19:55:00+09:00",
          "2026-08-09T20:00:00+09:00",
          "2026-08-09T20:25:00+09:00",
          "2026-08-09T21:10:00+09:00",
          "2026-08-09T21:15:00+09:00",
          "2026-08-09T21:20:00+09:00",
          "2026-08-09T21:25:00+09:00",
          "2026-08-09T21:55:00+09:00",
          "2026-08-09T22:00:00+09:00",
          "2026-08-09T22:05:00+09:00",
          "2026-08-09T22:35:00+09:00",
          "2026-08-09T22:40:00+09:00",
          "2026-08-09T22:45:00+09:00",
          "2026-08-09T23:25:00+09:00",
          "2026-08-09T23:30:00+09:00",
          "2026-08-09T23:35:00+09:00",
          "2026-08-09T23:40:00+09:00",
          "2026-08-09T23:45:00+09:00",
          "2026-08-10T00:05:00+09:00",
          "2026-08-10T00:40:00+09:00",
          "2026-08-10T00:55:00+09:00",
          "2026-08-10T01:00:00+09:00",
          "2026-08-10T01:05:00+09:00",
          "2026-08-10T01:10:00+09:00",
          "2026-08-10T01:25:00+09:00",
          "2026-08-10T01:30:00+09:00",
          "2026-08-10T01:35:00+09:00",
          "2026-08-10T14:30:00+09:00",
          "2026-08-10T14:35:00+09:00",
          "2026-08-10T14:40:00+09:00",
          "2026-08-10T14:45:00+09:00",
          "2026-08-10T14:50:00+09:00",
          "2026-08-10T14:55:00+09:00",
          "2026-08-10T15:00:00+09:00",
          "2026-08-10T15:05:00+09:00",
          "2026-08-10T15:10:00+09:00",
          "2026-08-10T15:15:00+09:00",
          "2026-08-10T15:25:00+09:00",
          "2026-08-10T15:30:00+09:00",
          "2026-08-10T15:35:00+09:00",
          "2026-08-10T15:40:00+09:00",
          "2026-08-10T15:45:00+09:00",
          "2026-08-10T16:30:00+09:00",
          "2026-08-10T16:35:00+09:00",
          "2026-08-10T16:40:00+09:00",
          "2026-08-10T16:45:00+09:00",
          "2026-08-10T16:50:00+09:00",
          "2026-08-10T16:55:00+09:00",
          "2026-08-10T17:00:00+09:00",
          "2026-08-10T17:05:00+09:00",
          "2026-08-10T17:15:00+09:00",
          "2026-08-10T18:05:00+09:00",
          "2026-08-13T10:35:00+09:00",
          "2026-08-13T10:40:00+09:00",
          "2026-08-13T11:05:00+09:00",
          "2026-08-13T11:20:00+09:00",
          "2026-08-13T11:55:00+09:00",
          "2026-08-13T12:00:00+09:00",
          "2026-08-13T12:05:00+09:00",
          "2026-08-13T13:40:00+09:00",
          "2026-08-13T13:45:00+09:00",
          "2026-08-13T13:50:00+09:00",
          "2026-08-13T13:55:00+09:00",
          "2026-08-13T14:00:00+09:00",
          "2026-08-13T14:05:00+09:00",
          "2026-08-13T14:20:00+09:00",
          "2026-08-13T14:25:00+09:00",
          "2026-08-13T14:30:00+09:00",
          "2026-08-13T14:35:00+09:00",
          "2026-08-13T14:55:00+09:00",
          "2026-08-13T15:10:00+09:00",
          "2026-08-13T17:20:00+09:00",
          "2026-08-13T17:25:00+09:00",
          "2026-08-13T17:30:00+09:00",
          "2026-08-13T17:35:00+09:00",
          "2026-08-13T17:40:00+09:00",
          "2026-08-13T17:45:00+09:00",
          "2026-08-13T17:50:00+09:00",
          "2026-08-13T17:55:00+09:00",
          "2026-08-13T18:00:00+09:00",
          "2026-08-13T18:05:00+09:00",
          "2026-08-13T18:10:00+09:00",
          "2026-08-13T18:15:00+09:00",
          "2026-08-13T18:30:00+09:00",
          "2026-08-13T19:55:00+09:00",
          "2026-08-13T20:00:00+09:00",
          "2026-08-13T20:30:00+09:00",
          "2026-08-13T20:40:00+09:00",
          "2026-08-13T20:50:00+09:00",
          "2026-08-13T20:55:00+09:00",
          "2026-08-13T21:05:00+09:00",
          "2026-08-13T21:35:00+09:00",
          "2026-08-13T21:40:00+09:00",
          "2026-08-13T21:55:00+09:00",
          "2026-08-13T22:00:00+09:00",
          "2026-08-13T22:05:00+09:00",
          "2026-08-13T22:10:00+09:00",
          "2026-08-13T22:15:00+09:00",
          "2026-08-13T22:20:00+09:00",
          "2026-08-15T10:20:00+09:00",
          "2026-08-15T10:25:00+09:00",
          "2026-08-15T10:30:00+09:00",
          "2026-08-15T10:50:00+09:00"
        ],
        "timezone": "Asia/Seoul",
        "interval_minutes": 5,
        "original_point_count": 11775,
        "resampled_point_count": 148
      },
      "geometry": {
        "type": "LineString",
        "coordinates": [
          [
            127.0762714808785,
            37.62735283485397,
            31.46157455444336
          ],
          [
            127.0764631356968,
            37.62731213927396,
            30.67496384307864
          ],
          [
            127.0777256429811,
            37.62766073873102,
            31.55048003930723
          ],
          [
            127.0755262541322,
            37.61872235301854,
            15.46695613275269
          ],
          [
            127.0749459493172,
            37.61263482807924,
            15.63321694375758
          ],
          [
            127.0626391891782,
            37.52278827429272,
            -24.0121286997548
          ],
          [
            126.6937107206228,
            37.52466703829153,
            56.6563833875764
          ],
          [
            126.6616147494501,
            37.52590244527158,
            10.30187400570994
          ],
          [
            126.6316625322184,
            37.52615892968016,
            7.61798689005202
          ],
          [
            126.6233889470779,
            37.5269093013255,
            6.495590097450934
          ],
          [
            126.6234509575348,
            37.52690153497695,
            10.20667266546219
          ],
          [
            126.6240567933399,
            37.52682565854857,
            46.46356883011913
          ],
          [
            126.6240573797225,
            37.52682606449501,
            46.463036985004
          ],
          [
            126.6240952703168,
            37.5268017816319,
            31.80463069513955
          ],
          [
            126.6240843523946,
            37.52661811505652,
            8.84419614384629
          ],
          [
            126.6239847363106,
            37.52642914006888,
            9.3009929785306
          ],
          [
            126.627817329336,
            37.5212445877099,
            8.133986045931886
          ],
          [
            126.6616537338016,
            37.52557287633103,
            6.424379650165269
          ],
          [
            126.6759538499707,
            37.52454505932117,
            20.75548060069183
          ],
          [
            126.7020641199188,
            37.52763981237258,
            41.78089991741967
          ],
          [
            126.7056336693844,
            37.52697069284767,
            30.05962435861822
          ],
          [
            126.7056504903609,
            37.52695484935036,
            30.02217450276824
          ],
          [
            126.705980668916,
            37.52653761414766,
            31.20032289461255
          ],
          [
            126.7059706689613,
            37.52656137660286,
            31.30152466977036
          ],
          [
            126.7058342171656,
            37.52730240235351,
            39.05586972950927
          ],
          [
            126.7058596104789,
            37.52705035163338,
            31.26144029945135
          ],
          [
            126.705845879877,
            37.52714341128936,
            31.81387588662464
          ],
          [
            126.7051979189385,
            37.527081755198,
            34.69863268910007
          ],
          [
            126.7051445971375,
            37.52689598682066,
            33.14204012880687
          ],
          [
            126.705538796842,
            37.52716292059095,
            35.01921275191599
          ],
          [
            126.7054683241113,
            37.5269188719536,
            30.97671228278517
          ],
          [
            126.7054614961891,
            37.5272239396578,
            35.19030866715247
          ],
          [
            126.7217166255431,
            37.53030684697745,
            29.81836911610234
          ],
          [
            126.7277846054609,
            37.53008597067497,
            25.09798571679845
          ],
          [
            126.6242138805485,
            37.52682451609261,
            37.83407741332281
          ],
          [
            126.6259614905149,
            37.52539792566338,
            8.285809988453327
          ],
          [
            126.63748026975,
            37.52303480898664,
            12.53120703830702
          ],
          [
            126.6720731290986,
            37.52464278439495,
            13.17179434756073
          ],
          [
            126.694141141786,
            37.52468779889285,
            43.57055863204346
          ],
          [
            126.7055024227925,
            37.52705960904244,
            35.63647033747414
          ],
          [
            126.7055484754052,
            37.52703046046621,
            51.64333713624749
          ],
          [
            126.6943934764595,
            37.52501730362808,
            54.72816231405758
          ],
          [
            126.6722762264515,
            37.5250383516925,
            28.25568327941808
          ],
          [
            126.6496910715492,
            37.52916466597413,
            11.99190494375439
          ],
          [
            126.6472347903494,
            37.53180027238552,
            28.0516101527874
          ],
          [
            126.6421544511402,
            37.52997921383047,
            7.520702552138782
          ],
          [
            126.6243576186714,
            37.52655675095248,
            7.311440722307403
          ],
          [
            126.624290391452,
            37.52641242751991,
            -4.364100368970424
          ],
          [
            126.6264676584243,
            37.52820796838881,
            7.445974342406865
          ],
          [
            126.6277585608361,
            37.53029332680972,
            6.266942024889376
          ],
          [
            126.6276928283558,
            37.53326078337569,
            4.154585093796406
          ],
          [
            126.6304427743526,
            37.53329763509537,
            6.045145657844841
          ],
          [
            126.6306978720595,
            37.53348540685377,
            5.612033759768179
          ],
          [
            126.6307238171387,
            37.53349650884545,
            6.73108190491131
          ],
          [
            126.6307484533153,
            37.53351373392409,
            7.847288933478098
          ],
          [
            126.63096347156,
            37.5336143955262,
            17.02172630602389
          ],
          [
            126.6310338363091,
            37.53391989581262,
            6.097480711666253
          ],
          [
            126.6310538512855,
            37.53387378657501,
            5.945597193025079
          ],
          [
            126.6309734893927,
            37.53389438892749,
            6.004607143141391
          ],
          [
            126.6309452387149,
            37.53363186696255,
            6.002354552830821
          ],
          [
            126.6302919675749,
            37.53221949136955,
            -0.8327078290285402
          ],
          [
            126.6308358590831,
            37.53250085986844,
            6.361393788217732
          ],
          [
            126.6308223570295,
            37.53252022072129,
            6.008937639034415
          ],
          [
            126.6307577328259,
            37.53261705106463,
            4.709328825736272
          ],
          [
            126.6309282375583,
            37.53237884968409,
            5.346103465301508
          ],
          [
            126.6308520633592,
            37.53173426715912,
            6.927716017700732
          ],
          [
            126.62766088006,
            37.53180237236574,
            5.978890820689626
          ],
          [
            126.6265468458344,
            37.52942921714912,
            7.089358735022334
          ],
          [
            126.6263046570453,
            37.52874221520185,
            8.611525669807536
          ],
          [
            126.6266722044055,
            37.52826061543666,
            8.110124817318146
          ],
          [
            126.6242695127471,
            37.52680268181295,
            10.69834775163355
          ],
          [
            126.6242251974562,
            37.52669591246354,
            8.029010546046628
          ],
          [
            126.6240789179455,
            37.52653227246232,
            7.840395328497679
          ],
          [
            126.6241118211764,
            37.5265998493261,
            8.022478260753214
          ],
          [
            126.6243180691392,
            37.52877951601499,
            7.737134077708363
          ],
          [
            126.6248745097229,
            37.53850720481745,
            8.144135280020963
          ],
          [
            126.6319421411683,
            37.54231522453372,
            8.132776112477778
          ],
          [
            126.6280362598349,
            37.55461564548241,
            7.244742737980307
          ],
          [
            126.6241739455979,
            37.55636972847386,
            7.419296187786729
          ],
          [
            126.6726132069708,
            37.56917657639634,
            10.81241252770037
          ],
          [
            126.7219796913905,
            37.57126406545817,
            22.58567844181519
          ],
          [
            126.7625601370571,
            37.57200736215716,
            10.78733013257571
          ],
          [
            126.8607124560554,
            37.59525544371495,
            23.95170953429956
          ],
          [
            126.8961774845239,
            37.57916201341725,
            20.17981615632876
          ],
          [
            126.9085512352551,
            37.57105227897807,
            19.02409216976593
          ],
          [
            126.9525672378882,
            37.54220858580835,
            12.72041548051791
          ],
          [
            126.9700043975745,
            37.55252896511215,
            14.23391267709979
          ],
          [
            127.0854906146183,
            37.62196775964477,
            30.02439962292324
          ],
          [
            127.0868253679237,
            37.62195332621082,
            28.72325405581568
          ],
          [
            127.0859667407024,
            37.62222520641367,
            30.56874296878326
          ],
          [
            127.0842066596952,
            37.62277052866757,
            33.67186478923966
          ],
          [
            127.080718960346,
            37.62310543991752,
            32.66667619507719
          ],
          [
            127.0785582760059,
            37.62255298758291,
            27.73064392615543
          ],
          [
            127.0783097184616,
            37.62269805631284,
            27.60806869063879
          ],
          [
            127.0783450596819,
            37.62269943389452,
            27.91614166225123
          ],
          [
            127.0783402442405,
            37.62272313923581,
            27.82358639120215
          ],
          [
            127.078324886458,
            37.62274175241146,
            27.73234461862742
          ],
          [
            127.075974096471,
            37.62683457216726,
            30.90117424389319
          ],
          [
            127.0729895185322,
            37.62036336165885,
            20.00269470099703
          ],
          [
            127.0619585205467,
            37.52207180109027,
            -25.84695064857843
          ],
          [
            127.031805138498,
            37.48433638096718,
            -9.249897616875034
          ],
          [
            126.9441215371185,
            37.37182749503872,
            39.67314493000161
          ],
          [
            126.9440976753532,
            37.37164957205515,
            67.89158704984439
          ],
          [
            126.9441489606489,
            37.37167588749433,
            41.42989816144109
          ],
          [
            126.9478208140771,
            37.37444775136861,
            36.75537455766133
          ],
          [
            126.9455495912039,
            37.37316829803326,
            37.28061158388012
          ],
          [
            126.9446855385776,
            37.37267718903485,
            37.10969579075764
          ],
          [
            126.9445298975761,
            37.372387419003,
            36.72787283671772
          ],
          [
            126.9444312407796,
            37.37247418640678,
            39.09850344184407
          ],
          [
            126.944400159368,
            37.37252109721776,
            39.86998983063261
          ],
          [
            126.9441904049237,
            37.3728523964748,
            37.09691641019971
          ],
          [
            126.9447124321837,
            37.37173933057991,
            137.0816510086879
          ],
          [
            126.9446616212224,
            37.37179587531374,
            111.7755989454073
          ],
          [
            126.9445718562275,
            37.37189810678285,
            67.01484898090546
          ],
          [
            126.9445689583444,
            37.37190856904949,
            63.972998770823
          ],
          [
            126.9445676223494,
            37.37191595532131,
            61.2127928258573
          ],
          [
            126.9445882396373,
            37.37199715341206,
            38.06050564013141
          ],
          [
            126.9431015252022,
            37.37172990255013,
            39.62497844385012
          ],
          [
            126.9422770153591,
            37.37184558702159,
            40.61125385357636
          ],
          [
            126.9414263158818,
            37.37126292591897,
            40.70094217498576
          ],
          [
            126.9401444175906,
            37.37051034003633,
            42.33190991073085
          ],
          [
            126.9385042957282,
            37.37166740392944,
            43.91044076186814
          ],
          [
            126.9375122485891,
            37.37048499375869,
            42.49689494236657
          ],
          [
            126.9392261062864,
            37.37024703040843,
            42.45726115390309
          ],
          [
            126.9408407041522,
            37.37086183331684,
            42.13245291197759
          ],
          [
            126.9429492365791,
            37.37084056403359,
            41.68682209311238
          ],
          [
            126.9429762367585,
            37.3707976831168,
            42.42474333483864
          ],
          [
            126.9430381213033,
            37.37087752171411,
            40.37051998298988
          ],
          [
            126.9430258663895,
            37.3708763667067,
            40.78201177134653
          ],
          [
            126.9430785119446,
            37.37084384846317,
            41.94760078587326
          ],
          [
            126.9431678678114,
            37.37099997696879,
            41.3834473401869
          ],
          [
            126.9431682309165,
            37.37108011315657,
            40.85900610312819
          ],
          [
            126.9432189142585,
            37.37104500433434,
            40.79995126923038
          ],
          [
            126.9432779750395,
            37.37141115677015,
            40.91215193930437
          ],
          [
            126.9424705121203,
            37.37206985292285,
            40.06420514883239
          ],
          [
            126.9424780754358,
            37.37204712425061,
            40.36784372923031
          ],
          [
            126.9425012235358,
            37.37195876783074,
            41.46094312984496
          ],
          [
            126.9425463882227,
            37.3719807845839,
            40.76875401391086
          ],
          [
            126.9431301479456,
            37.37161890759371,
            41.33243028210405
          ],
          [
            126.9437643421922,
            37.37160722431699,
            37.94424805919005
          ],
          [
            126.9432081012467,
            37.37186991683587,
            39.67253898914247
          ],
          [
            126.9462133934766,
            37.39037880046273,
            27.69288690588529
          ],
          [
            126.952581673444,
            37.40771612437917,
            25.43131165966946
          ],
          [
            126.9564200400845,
            37.41817093610236,
            23.92162159241908
          ],
          [
            127.0783052438806,
            37.62268445647459,
            26.42954467564836
          ],
          [
            127.078309623843,
            37.62270381812633,
            28.17072910601683
          ],
          [
            127.0783060547698,
            37.62270092809091,
            28.0819842483819
          ],
          [
            127.078257046911,
            37.62261900983543,
            27.43704157322645
          ]
        ]
      }
    }
  ]
}